GNOMES-1                
1 46266U 20059B   26068.53916665  .00004080  00000+0  33422-3 0  9991
2 46266  97.8057 278.7760 0005451 357.8604   2.2595 14.99848479300657
STARLINK-34033          
1 64045U 25102Z   26068.56165852  .00003267  00000+0  28142-3 0  9996
2 64045  70.0010 114.7526 0003568 269.7941  90.2809 14.98332780 45861
